{
  "type": "FeatureCollection",
  "features": [
    {
      "type": "Feature",
      "properties": {
        "norad_id": 41599,
        "name": "CARTOSAT-2C",
        "group": "resource",
        "lat": -19.74345209419504,
        "lon": -127.40727628312247,
        "alt_km": 520.9155996297714,
        "timestamp": "2025-12-24T03:53:29.299767+00:00",
        "meta_object_name": "CARTOSAT-2C",
        "meta_object_id": "2016-040A",
        "meta_epoch": "2025-12-23T20:41:30.859008",
        "meta_mean_motion": 15.19208623,
        "meta_eccentricity": 0.0010889,
        "meta_inclination": 97.4746,
        "meta_ra_of_asc_node": 54.9968,
        "meta_arg_of_pericenter": 28.1504,
        "meta_mean_anomaly": 332.0317,
        "meta_ephemeris_type": 0,
        "meta_classification_type": "U",
        "meta_norad_cat_id": 41599,
        "meta_element_set_no": 999,
        "meta_rev_at_epoch": 52709,
        "meta_bstar": 0.00014325,
        "meta_mean_motion_dot": 2.95e-05,
        "meta_mean_motion_ddot": 0,
        "tle_line1": "1 41599U 16040A   25357.86216272  .00002950  00000+0  14325-3 0  9998",
        "tle_line2": "2 41599  97.4746  54.9968 0010889  28.1504 332.0317 15.19208623527093"
      },
      "geometry": {
        "type": "Point",
        "coordinates": [
          -127.40727628312247,
          -19.74345209419504
        ]
      }
    },
    {
      "type": "Feature",
      "properties": {
        "norad_id": 41601,
        "name": "SKYSAT-C1",
        "group": "resource",
        "lat": 82.75549215877578,
        "lon": -40.01327326746211,
        "alt_km": 460.3920549425884,
        "timestamp": "2025-12-24T03:53:29.299778+00:00",
        "meta_object_name": "SKYSAT-C1",
        "meta_object_id": "2016-040C",
        "meta_epoch": "2025-12-23T13:24:26.934048",
        "meta_mean_motion": 15.32776933,
        "meta_eccentricity": 0.0001111,
        "meta_inclination": 96.9803,
        "meta_ra_of_asc_node": 33.962,
        "meta_arg_of_pericenter": 332.3791,
        "meta_mean_anomaly": 27.7393,
        "meta_ephemeris_type": 0,
        "meta_classification_type": "U",
        "meta_norad_cat_id": 41601,
        "meta_element_set_no": 999,
        "meta_rev_at_epoch": 53093,
        "meta_bstar": 0.00029928,
        "meta_mean_motion_dot": 9.404e-05,
        "meta_mean_motion_ddot": 0,
        "tle_line1": "1 41601U 16040C   25357.55864507  .00009404  00000+0  29928-3 0  9994",
        "tle_line2": "2 41601  96.9803  33.9620 0001111 332.3791  27.7393 15.32776933530931"
      },
      "geometry": {
        "type": "Point",
        "coordinates": [
          -40.01327326746211,
          82.75549215877578
        ]
      }
    },
    {
      "type": "Feature",
      "properties": {
        "norad_id": 41603,
        "name": "LAPAN-A3",
        "group": "resource",
        "lat": -7.028776288092623,
        "lon": 174.417165529331,
        "alt_km": 475.9089095989384,
        "timestamp": "2025-12-24T03:53:29.299789+00:00",
        "meta_object_name": "LAPAN-A3",
        "meta_object_id": "2016-040E",
        "meta_epoch": "2025-12-23T20:48:18.040608",
        "meta_mean_motion": 15.31638582,
        "meta_eccentricity": 0.0008715,
        "meta_inclination": 97.1431,
        "meta_ra_of_asc_node": 355.0185,
        "meta_arg_of_pericenter": 287.8328,
        "meta_mean_anomaly": 72.1963,
        "meta_ephemeris_type": 0,
        "meta_classification_type": "U",
        "meta_norad_cat_id": 41603,
        "meta_element_set_no": 999,
        "meta_rev_at_epoch": 52796,
        "meta_bstar": 0.00014909,
        "meta_mean_motion_dot": 4.485e-05,
        "meta_mean_motion_ddot": 0,
        "tle_line1": "1 41603U 16040E   25357.86687547  .00004485  00000+0  14909-3 0  9994",
        "tle_line2": "2 41603  97.1431 355.0185 0008715 287.8328  72.1963 15.31638582527966"
      },
      "geometry": {
        "type": "Point",
        "coordinates": [
          174.417165529331,
          -7.028776288092623
        ]
      }
    },
    {
      "type": "Feature",
      "properties": {
        "norad_id": 41604,
        "name": "BIROS",
        "group": "resource",
        "lat": -33.331770466272324,
        "lon": 34.77003916560404,
        "alt_km": 299.2913714870501,
        "timestamp": "2025-12-24T03:53:29.299799+00:00",
        "meta_object_name": "BIROS",
        "meta_object_id": "2016-040F",
        "meta_epoch": "2025-12-23T00:54:41.222304",
        "meta_mean_motion": 15.93712142,
        "meta_eccentricity": 0.00037921,
        "meta_inclination": 97.067,
        "meta_ra_of_asc_node": 28.9133,
        "meta_arg_of_pericenter": 129.7524,
        "meta_mean_anomaly": 230.4087,
        "meta_ephemeris_type": 0,
        "meta_classification_type": "U",
        "meta_norad_cat_id": 41604,
        "meta_element_set_no": 999,
        "meta_rev_at_epoch": 53036,
        "meta_bstar": 0.00061249698,
        "meta_mean_motion_dot": 0.00219845,
        "meta_mean_motion_ddot": 2.0271061e-05,
        "tle_line1": "1 41604U 16040F   25357.03797711  .00219845  20271-4  61250-3 0  9995",
        "tle_line2": "2 41604  97.0670  28.9133 0003792 129.7524 230.4087 15.93712142530369"
      },
      "geometry": {
        "type": "Point",
        "coordinates": [
          34.77003916560404,
          -33.331770466272324
        ]
      }
    },
    {
      "type": "Feature",
      "properties": {
        "norad_id": 41727,
        "name": "GAOFEN-3",
        "group": "resource",
        "lat": -73.19930120737163,
        "lon": 154.26040444856264,
        "alt_km": 759.2471780342403,
        "timestamp": "2025-12-24T03:53:29.299809+00:00",
        "meta_object_name": "GAOFEN-3",
        "meta_object_id": "2016-049A",
        "meta_epoch": "2025-12-23T21:42:56.524032",
        "meta_mean_motion": 14.42215652,
        "meta_eccentricity": 0.0001142,
        "meta_inclination": 98.4032,
        "meta_ra_of_asc_node": 3.3202,
        "meta_arg_of_pericenter": 56.3447,
        "meta_mean_anomaly": 303.7852,
        "meta_ephemeris_type": 0,
        "meta_classification_type": "U",
        "meta_norad_cat_id": 41727,
        "meta_element_set_no": 999,
        "meta_rev_at_epoch": 49338,
        "meta_bstar": -1.1954e-05,
        "meta_mean_motion_dot": -8.3e-07,
        "meta_mean_motion_ddot": 0,
        "tle_line1": "1 41727U 16049A   25357.90482088 -.00000083  00000+0 -11954-4 0  9998",
        "tle_line2": "2 41727  98.4032   3.3202 0001142  56.3447 303.7852 14.42215652493383"
      },
      "geometry": {
        "type": "Point",
        "coordinates": [
          154.26040444856264,
          -73.19930120737163
        ]
      }
    },
    {
      "type": "Feature",
      "properties": {
        "norad_id": 41771,
        "name": "SKYSAT-C4",
        "group": "resource",
        "lat": 61.36820631357178,
        "lon": 9.9105881778572,
        "alt_km": 431.8066091641567,
        "timestamp": "2025-12-24T03:53:29.299819+00:00",
        "meta_object_name": "SKYSAT-C4",
        "meta_object_id": "2016-058B",
        "meta_epoch": "2025-12-23T12:03:14.856192",
        "meta_mean_motion": 15.42544852,
        "meta_eccentricity": 0.0002443,
        "meta_inclination": 96.9361,
        "meta_ra_of_asc_node": 22.1673,
        "meta_arg_of_pericenter": 125.1845,
        "meta_mean_anomaly": 234.9633,
        "meta_ephemeris_type": 0,
        "meta_classification_type": "U",
        "meta_norad_cat_id": 41771,
        "meta_element_set_no": 999,
        "meta_rev_at_epoch": 51833,
        "meta_bstar": 0.00035277,
        "meta_mean_motion_dot": 0.00015244,
        "meta_mean_motion_ddot": 0,
        "tle_line1": "1 41771U 16058B   25357.50225528  .00015244  00000+0  35277-3 0  9993",
        "tle_line2": "2 41771  96.9361  22.1673 0002443 125.1845 234.9633 15.42544852518336"
      },
      "geometry": {
        "type": "Point",
        "coordinates": [
          9.9105881778572,
          61.36820631357178
        ]
      }
    },
    {
      "type": "Feature",
      "properties": {
        "norad_id": 41772,
        "name": "SKYSAT-C5",
        "group": "resource",
        "lat": -4.912997219481302,
        "lon": 42.047642805572714,
        "alt_km": 468.6743833426053,
        "timestamp": "2025-12-24T03:53:29.299830+00:00",
        "meta_object_name": "SKYSAT-C5",
        "meta_object_id": "2016-058C",
        "meta_epoch": "2025-12-23T13:49:25.032288",
        "meta_mean_motion": 15.34063697,
        "meta_eccentricity": 0.0003898,
        "meta_inclination": 97.0738,
        "meta_ra_of_asc_node": 40.8744,
        "meta_arg_of_pericenter": 238.8594,
        "meta_mean_anomaly": 121.2267,
        "meta_ephemeris_type": 0,
        "meta_classification_type": "U",
        "meta_norad_cat_id": 41772,
        "meta_element_set_no": 999,
        "meta_rev_at_epoch": 51682,
        "meta_bstar": 0.000292,
        "meta_mean_motion_dot": 9.554e-05,
        "meta_mean_motion_ddot": 0,
        "tle_line1": "1 41772U 16058C   25357.57598417  .00009554  00000+0  29200-3 0  9997",
        "tle_line2": "2 41772  97.0738  40.8744 0003898 238.8594 121.2267 15.34063697516828"
      },
      "geometry": {
        "type": "Point",
        "coordinates": [
          42.047642805572714,
          -4.912997219481302
        ]
      }
    }
  ]
}